LAPAN-A2
1 40931U 00000    26168.09809028  .00000000  00000-0 -12415-2 0    05
2 40931   5.9979  55.7933 0012596   0.3925  60.4667 14.60874838    00
# 20260620.18-20260620.19, 1603 measurements, 1.006 kHz rms
